0 SL-8 R/B
1 18096U 87049B   13281.20931962  .00000110  00000-0  46881-4 0  3301
2 18096 074.0436 180.3554 0022849 320.7594 204.1632 14.35899841378470
0 SL-8 R/B
1 18096U 87049B   13282.38494606  .00000110  00000-0  46888-4 0  3318
2 18096 074.0435 178.1985 0022880 318.4119 161.1594 14.35900715378645
0 SL-8 R/B
1 18096U 87049B   13283.76103666  .00000090  00000-0  40075-4 0  3324
2 18096 074.0434 175.6740 0022873 315.7941 074.2587 14.35901046378846
0 SL-8 R/B
1 18096U 87049B   13286.35624420  .00000149  00000-0  60176-4 0  3349
2 18096 074.0429 170.9131 0022911 310.6666 169.2521 14.35901219379210
0 SL-8 R/B
1 18096U 87049B   13287.80905853  .00000159  00000-0  63778-4 0  3355
2 18096 074.0426 168.2478 0022966 307.6763 119.1729 14.35902166379424
0 SL-8 R/B
1 18096U 87049B   13288.85616017  .00000179  00000-0  70778-4 0  3363
2 18096 074.0423 166.3268 0022990 305.5675 131.8327 14.35902608379575
0 SL-8 R/B
1 18096U 87049B   13290.18583271  .00000166  00000-0  66057-4 0  3379
2 18096 074.0420 163.8873 0023008 302.9002 165.1442 14.35903384379763
0 SL-8 R/B
1 18096U 87049B   13291.23519608  .00000165  00000-0  65878-4 0  3389
2 18096 074.0419 161.9621 0023011 300.8070 189.4787 14.35904192379913
0 SL-8 R/B
1 18096U 87049B   13292.27812269  .00000174  00000-0  68939-4 0  3395
2 18096 074.0419 160.0485 0022981 298.7797 180.4904 14.35904752380069
0 SL-8 R/B
1 18096U 87049B   13293.87049503  .00000203  00000-0  79026-4 0  3409
2 18096 074.0419 157.1270 0023004 295.6564 131.6861 14.35905108380294
0 SL-8 R/B
1 18096U 87049B   13295.20393883  .00000149  00000-0  60371-4 0  3414
2 18096 074.0418 154.6806 0023032 293.0591 184.4242 14.35905561380486
